IRIDIUM 138             
1 43071U 17083B   26193.85174963  .00000141  00000+0  43258-4 0  9999
2 43071  86.3998 310.9863 0002060  91.9640 268.1792 14.34218126447818
IRIDIUM 116             
1 43072U 17083C   26193.82003520  .00000157  00000+0  48893-4 0  9994
2 43072  86.3986 311.2860 0002418  99.5317 260.6152 14.34217401447844
IRIDIUM 130             
1 43073U 17083D   26193.85809488  .00000131  00000+0  39879-4 0  9991
2 43073  86.3992 311.5478 0002215 100.9883 259.1562 14.34217381447799
IRIDIUM 151             
1 43074U 17083E   26193.83272272  .00000144  00000+0  44299-4 0  9991
2 43074  86.3986 311.3388 0002235  95.3747 264.7704 14.34217677447810
IRIDIUM 134             
1 43075U 17083F   26193.87077759  .00000126  00000+0  38030-4 0  9995
2 43075  86.3986 311.3314 0002194  95.4857 264.6589 14.34218184447787
IRIDIUM 137             
1 43076U 17083G   26193.81369582  .00000132  00000+0  40113-4 0  9990
2 43076  86.3989 311.4486 0002664  94.2144 265.9357 14.34218094447844
IRIDIUM 141             
1 43077U 17083H   26193.87711941  .00000147  00000+0  45266-4 0  9997
2 43077  86.3984 311.2512 0002151  93.1739 266.9703 14.34217762447855
IRIDIUM 153             
1 43078U 17083J   26194.17814134  .00000064  00000+0  15945-4 0  9999
2 43078  86.3960 279.6051 0002114  94.3616 265.7822 14.34217725449008
IRIDIUM 131             
1 43079U 17083K   26193.86443608  .00000051  00000+0  10978-4 0  9996
2 43079  86.3990 311.4441 0002262  93.0596 267.0858 14.34217678447781
IRIDIUM 144             
1 43249U 18030A   26194.18448431  .00000056  00000+0  13014-4 0  9992
2 43249  86.3957 279.5309 0002379  97.8331 262.3135 14.34217771433862
IRIDIUM 149             
1 43250U 18030B   26193.77221598  .00000113  00000+0  33394-4 0  9998
2 43250  86.3958 279.6700 0002250  93.4321 266.7132 14.34217836433823
IRIDIUM 157             
1 43251U 18030C   26194.20985721  .00000137  00000+0  41893-4 0  9992
2 43251  86.3961 279.5410 0002259  94.2414 265.9039 14.34217569433860
IRIDIUM 140             
1 43252U 18030D   26193.74050473  .00000149  00000+0  46127-4 0  9996
2 43252  86.3960 279.7497 0002232  95.7422 264.4028 14.34217052433851
IRIDIUM 145             
1 43253U 18030E   26193.72781600  .00000137  00000+0  41833-4 0  9994
2 43253  86.3959 279.7269 0002473 100.6657 259.4817 14.34217167433789
IRIDIUM 146             
1 43254U 18030F   26194.19716927  .00000034  00000+0  52484-5 0  9998
2 43254  86.3959 279.5430 0002388  96.8399 263.3068 14.34217210433862
IRIDIUM 148             
1 43255U 18030G   26194.23522813  .00000152  00000+0  47069-4 0  9996
2 43255  86.3961 279.5705 0002348  94.1462 266.0002 14.34217626433903
IRIDIUM 142             
1 43256U 18030H   26193.85466975  .00000117  00000+0  34539-4 0  9999
2 43256  86.3955 279.6179 0002396  97.8058 262.3409 14.34217997433818
IRIDIUM 150             
1 43257U 18030J   26194.17179556 -.00000206  00000+0 -80601-4 0  9994
2 43257  86.3958 279.6021 0002120  96.3580 263.7858 14.34216245433882
IRIDIUM 143             
1 43258U 18030K   26193.73416067  .00000072  00000+0  18596-4 0  9990
2 43258  86.3963 279.8786 0002315  96.3911 263.7548 14.34217359433752
IRIDIUM 161             
1 43478U 18047C   26192.15744448  .00000172  00000+0  45078-4 0  9990
2 43478  86.4467  78.4474 0002306  78.8180 281.3280 14.43284936428596
IRIDIUM 152             
1 43479U 18047D   26193.77664986  .00000147  00000+0  45304-4 0  9992
2 43479  86.3939  77.6313 0002135  82.7944 277.3495 14.34219612426157
IRIDIUM 147             
1 43480U 18047E   26193.71321942  .00000139  00000+0  42503-4 0  9999
2 43480  86.3940  77.6635 0002269  88.3158 271.8298 14.34217360426142
IRIDIUM 110             
1 43481U 18047F   26193.99863788  .00000146  00000+0  45155-4 0  9993
2 43481  86.3943  77.6367 0002156  76.5156 283.6280 14.34217966426177
IRIDIUM 162             
1 43482U 18047G   26191.11118814  .00000189  00000+0  50126-4 0  9990
2 43482  86.4467  78.7759 0002187  84.2783 275.8667 14.43283456428433
IRIDIUM 160             
1 43569U 18061A   26194.01423985  .00000123  00000+0  36777-4 0  9996
2 43569  86.3942  45.9944 0002221  85.9208 274.2242 14.34216471417070
IRIDIUM 166             
1 43570U 18061B   26192.50470310  .00000031  00000+0  39317-5 0  9996
2 43570  86.3940  46.5761 0002260  89.6407 270.5047 14.34217869416881
IRIDIUM 158             
1 43571U 18061C   26194.00789913  .00000059  00000+0  13891-4 0  9994
2 43571  86.3940  45.9570 0002062  86.4900 273.6532 14.34217395417064
IRIDIUM 165             
1 43572U 18061D   26193.54488934  .00000091  00000+0  25565-4 0  9999
2 43572  86.3942  46.1976 0002266  90.8182 269.3273 14.34217303417026
IRIDIUM 155             
1 43573U 18061E   26193.99521352  .00000080  00000+0  21377-4 0  9996
2 43573  86.3939  45.8772 0002101  89.0391 271.1045 14.34217272417059
IRIDIUM 154             
1 43574U 18061F   26193.97618525  .00000128  00000+0  38745-4 0  9994
2 43574  86.3939  46.0199 0002290  90.2033 269.9425 14.34217677417104
IRIDIUM 163             
1 43575U 18061G   26194.02692615  .00000107  00000+0  31283-4 0  9991
2 43575  86.3937  45.9131 0002152  85.5925 274.5517 14.34217630417081
